{
    "links": {
        "self": "http://www.neowsapp.com/rest/v1/neo/3360543?api_key=iIulBulltgU6a56xZRHN4H3l9WmuAYTsLGpBGhQ2"
    },
    "id": "3360543",
    "neo_reference_id": "3360543",
    "name": "(2006 WZ29)",
    "designation": "2006 WZ29",
    "nasa_jpl_url": "http://ssd.jpl.nasa.gov/sbdb.cgi?sstr=3360543",
    "absolute_magnitude_h": 24.8,
    "estimated_diameter": {
        "kilometers": {
            "estimated_diameter_min": 0.0291443905,
            "estimated_diameter_max": 0.0651688382
        },
        "meters": {
            "estimated_diameter_min": 29.1443904535,
            "estimated_diameter_max": 65.1688382168
        },
        "miles": {
            "estimated_diameter_min": 0.018109479,
            "estimated_diameter_max": 0.0404940262
        },
        "feet": {
            "estimated_diameter_min": 95.6180819754,
            "estimated_diameter_max": 213.8085311752
        }
    },
    "is_potentially_hazardous_asteroid": false,
    "close_approach_data": [
        {
            "close_approach_date": "2006-11-03",
            "close_approach_date_full": "2006-Nov-03 22:24",
            "epoch_date_close_approach": 1162592640000,
            "relative_velocity": {
                "kilometers_per_second": "10.437374103",
                "kilometers_per_hour": "37574.5467708479",
                "miles_per_hour": "23347.3621310305"
            },
            "miss_distance": {
                "astronomical": "0.035375009",
                "lunar": "13.760878501",
                "kilometers": "5292025.99763083",
                "miles": "3288312.473852254"
            },
            "orbiting_body": "Earth"
        }
    ],
    "orbital_data": {
        "orbit_id": "7",
        "orbit_determination_date": "2017-04-06 09:07:31",
        "first_observation_date": "2006-11-23",
        "last_observation_date": "2006-11-27",
        "data_arc_in_days": 4,
        "observations_used": 22,
        "orbit_uncertainty": "9",
        "minimum_orbit_intersection": ".0184655",
        "jupiter_tisserand_invariant": "3.380",
        "epoch_osculation": "2454064.5",
        "eccentricity": ".571633537873275",
        "semi_major_axis": "2.259814753404381",
        "inclination": "4.848874820730082",
        "ascending_node_longitude": "226.8910899781505",
        "orbital_period": "1240.816861079026",
        "perihelion_distance": ".9680288509776123",
        "perihelion_argument": "143.8396023728807",
        "aphelion_distance": "3.55160065583115",
        "perihelion_time": "2454020.294997688677",
        "mean_anomaly": "12.82526159278452",
        "mean_motion": ".2901314539576296",
        "equinox": "J2000",
        "orbit_class": {
            "orbit_class_type": "APO",
            "orbit_class_description": "Near-Earth asteroid orbits which cross the Earth’s orbit similar to that of 1862 Apollo",
            "orbit_class_range": "a (semi-major axis) > 1.0 AU; q (perihelion) < 1.017 AU"
        }
    },
    "is_sentry_object": false
}